{
  "type": "FeatureCollection",
  "features": [
    {
      "type": "Feature",
      "properties": {
        "norad_id": 58655,
        "name": "BEIDOU-3 M26 (C48)",
        "group": "beidou",
        "lat": 45.07191194928941,
        "lon": 111.42988562576028,
        "alt_km": 21533.638176789154,
        "timestamp": "2025-12-27T08:36:18.647870+00:00",
        "meta_object_name": "BEIDOU-3 M26 (C48)",
        "meta_object_id": "2023-207B",
        "meta_epoch": "2025-12-26T17:36:09.851904",
        "meta_mean_motion": 1.86231163,
        "meta_eccentricity": 0.00042763,
        "meta_inclination": 55.5984,
        "meta_ra_of_asc_node": 68.1137,
        "meta_arg_of_pericenter": 261.988,
        "meta_mean_anomaly": 98.0139,
        "meta_ephemeris_type": 0,
        "meta_classification_type": "U",
        "meta_norad_cat_id": 58655,
        "meta_element_set_no": 999,
        "meta_rev_at_epoch": 1361,
        "meta_bstar": 0,
        "meta_mean_motion_dot": -3.4e-07,
        "meta_mean_motion_ddot": 0,
        "tle_line1": "1 58655U 23207B   25360.73344736 -.00000034  00000+0  00000+0 0  9992",
        "tle_line2": "2 58655  55.5984  68.1137 0004276 261.9880  98.0139  1.86231163 13618"
      },
      "geometry": {
        "type": "Point",
        "coordinates": [
          111.42988562576028,
          45.07191194928941
        ]
      }
    },
    {
      "type": "Feature",
      "properties": {
        "norad_id": 61186,
        "name": "BEIDOU-3 M25 (C47)",
        "group": "beidou",
        "lat": 3.2990464481010626,
        "lon": 125.85368240474676,
        "alt_km": 21536.56117917078,
        "timestamp": "2025-12-27T08:36:18.647905+00:00",
        "meta_object_name": "BEIDOU-3 M25 (C47)",
        "meta_object_id": "2024-168B",
        "meta_epoch": "2025-12-27T04:57:33.161184",
        "meta_mean_motion": 1.86229887,
        "meta_eccentricity": 0.0005389,
        "meta_inclination": 54.629,
        "meta_ra_of_asc_node": 308.2197,
        "meta_arg_of_pericenter": 300.5492,
        "meta_mean_anomaly": 133.5608,
        "meta_ephemeris_type": 0,
        "meta_classification_type": "U",
        "meta_norad_cat_id": 61186,
        "meta_element_set_no": 999,
        "meta_rev_at_epoch": 858,
        "meta_bstar": 0,
        "meta_mean_motion_dot": -6e-07,
        "meta_mean_motion_ddot": 0,
        "tle_line1": "1 61186U 24168B   25361.20663381 -.00000060  00000+0  00000+0 0  9994",
        "tle_line2": "2 61186  54.6290 308.2197 0005389 300.5492 133.5608  1.86229887  8586"
      },
      "geometry": {
        "type": "Point",
        "coordinates": [
          125.85368240474676,
          3.2990464481010626
        ]
      }
    },
    {
      "type": "Feature",
      "properties": {
        "norad_id": 61187,
        "name": "BEIDOU-3 M27 (C49)",
        "group": "beidou",
        "lat": -38.05283458519316,
        "lon": -85.56970882728552,
        "alt_km": 21526.635267701244,
        "timestamp": "2025-12-27T08:36:18.647918+00:00",
        "meta_object_name": "BEIDOU-3 M27 (C49)",
        "meta_object_id": "2024-168C",
        "meta_epoch": "2025-12-26T02:09:38.712960",
        "meta_mean_motion": 1.86230112,
        "meta_eccentricity": 0.00025351,
        "meta_inclination": 54.6256,
        "meta_ra_of_asc_node": 308.2421,
        "meta_arg_of_pericenter": 341.7609,
        "meta_mean_anomaly": 198.677,
        "meta_ephemeris_type": 0,
        "meta_classification_type": "U",
        "meta_norad_cat_id": 61187,
        "meta_element_set_no": 999,
        "meta_rev_at_epoch": 603,
        "meta_bstar": 0,
        "meta_mean_motion_dot": -5.6e-07,
        "meta_mean_motion_ddot": 0,
        "tle_line1": "1 61187U 24168C   25360.09003140 -.00000056  00000+0  00000+0 0  9997",
        "tle_line2": "2 61187  54.6256 308.2421 0002535 341.7609 198.6770  1.86230112  6039"
      },
      "geometry": {
        "type": "Point",
        "coordinates": [
          -85.56970882728552,
          -38.05283458519316
        ]
      }
    }
  ]
}